[Satellite]
VERSION=1.1
NAME=AMSC 1
NICKNAME=AMSC 1
TLE1=1 23553U 95019A   17185.61182774 -.00000125  00000-0  00000-0 0  9999
TLE2=2 23553  10.1040  39.7278 0002986  50.5501 309.4673  1.00272700 81384
